[
  {
    "OBJECT_NAME": "STARLINK-31446",
    "OBJECT_ID": "24056V",
    "EPOCH": "2025-11-11T01:16:28.697088",
    "MEAN_MOTION": 15.27596392,
    "ECCENTRICITY": 8.16e-05,
    "INCLINATION": 42.9999,
    "RA_OF_ASC_NODE": 180.423,
    "ARG_OF_PERICENTER": 267.2355,
    "MEAN_ANOMALY": 92.8404,
    "EPHEMERIS_TYPE": 0,
    "CLASSIFICATION_TYPE": "U",
    "NORAD_CAT_ID": 59315,
    "ELEMENT_SET_NO": 999,
    "REV_AT_EPOCH": 9301,
    "BSTAR": 5.3692e-05,
    "MEAN_MOTION_DOT": 1.217e-05,
    "MEAN_MOTION_DDOT": 0.0,
    "TLE_LINE1": "1 59315U 24056V   25315.05310992  .00001217  00000+0  53692-4 0  9994",
    "TLE_LINE2": "2 59315  42.9999 180.4230 0000816 267.2355  92.8404 15.27596392 93019",
    "COMMENT": "Grouped by shell and plane from TLE"
  },
  {
    "OBJECT_NAME": "STARLINK-31479",
    "OBJECT_ID": "24056W",
    "EPOCH": "2025-11-11T01:19:42.858624",
    "MEAN_MOTION": 15.27544811,
    "ECCENTRICITY": 5.92e-05,
    "INCLINATION": 43.0002,
    "RA_OF_ASC_NODE": 184.7578,
    "ARG_OF_PERICENTER": 290.5288,
    "MEAN_ANOMALY": 69.55,
    "EPHEMERIS_TYPE": 0,
    "CLASSIFICATION_TYPE": "U",
    "NORAD_CAT_ID": 59316,
    "ELEMENT_SET_NO": 999,
    "REV_AT_EPOCH": 9296,
    "BSTAR": 0.00037508999999999996,
    "MEAN_MOTION_DOT": 0.00010063,
    "MEAN_MOTION_DDOT": 0.0,
    "TLE_LINE1": "1 59316U 24056W   25315.05535716  .00010063  00000+0  37509-3 0  9995",
    "TLE_LINE2": "2 59316  43.0002 184.7578 0000592 290.5288  69.5500 15.27544811 92964",
    "COMMENT": "Grouped by shell and plane from TLE"
  },
  {
    "OBJECT_NAME": "STARLINK-31349",
    "OBJECT_ID": "24056X",
    "EPOCH": "2025-11-10T08:22:59.112192",
    "MEAN_MOTION": 15.27569923,
    "ECCENTRICITY": 9.33e-05,
    "INCLINATION": 43.0016,
    "RA_OF_ASC_NODE": 184.6044,
    "ARG_OF_PERICENTER": 268.8621,
    "MEAN_ANOMALY": 91.2124,
    "EPHEMERIS_TYPE": 0,
    "CLASSIFICATION_TYPE": "U",
    "NORAD_CAT_ID": 59317,
    "ELEMENT_SET_NO": 999,
    "REV_AT_EPOCH": 9297,
    "BSTAR": 4.6106e-05,
    "MEAN_MOTION_DOT": 1.007e-05,
    "MEAN_MOTION_DDOT": 0.0,
    "TLE_LINE1": "1 59317U 24056X   25314.34929528  .00001007  00000+0  46106-4 0  9997",
    "TLE_LINE2": "2 59317  43.0016 184.6044 0000933 268.8621  91.2124 15.27569923 92971",
    "COMMENT": "Grouped by shell and plane from TLE"
  },
  {
    "OBJECT_NAME": "STARLINK-31464",
    "OBJECT_ID": "24056Y",
    "EPOCH": "2025-11-10T23:53:25.676448",
    "MEAN_MOTION": 15.27589653,
    "ECCENTRICITY": 0.0001155,
    "INCLINATION": 43.0011,
    "RA_OF_ASC_NODE": 180.8528,
    "ARG_OF_PERICENTER": 257.2196,
    "MEAN_ANOMALY": 102.8527,
    "EPHEMERIS_TYPE": 0,
    "CLASSIFICATION_TYPE": "U",
    "NORAD_CAT_ID": 59318,
    "ELEMENT_SET_NO": 999,
    "REV_AT_EPOCH": 9300,
    "BSTAR": 5.2562e-05,
    "MEAN_MOTION_DOT": 1.185e-05,
    "MEAN_MOTION_DDOT": 0.0,
    "TLE_LINE1": "1 59318U 24056Y   25314.99543607  .00001185  00000+0  52562-4 0  9999",
    "TLE_LINE2": "2 59318  43.0011 180.8528 0001155 257.2196 102.8527 15.27589653 93001",
    "COMMENT": "Grouped by shell and plane from TLE"
  },
  {
    "OBJECT_NAME": "STARLINK-31921",
    "OBJECT_ID": "24098L",
    "EPOCH": "2025-11-11T00:40:05.077920",
    "MEAN_MOTION": 15.27583774,
    "ECCENTRICITY": 3.2e-05,
    "INCLINATION": 42.9992,
    "RA_OF_ASC_NODE": 187.7796,
    "ARG_OF_PERICENTER": 308.9345,
    "MEAN_ANOMALY": 51.1478,
    "EPHEMERIS_TYPE": 0,
    "CLASSIFICATION_TYPE": "U",
    "NORAD_CAT_ID": 59868,
    "ELEMENT_SET_NO": 999,
    "REV_AT_EPOCH": 8415,
    "BSTAR": 7.4144e-05,
    "MEAN_MOTION_DOT": 1.779e-05,
    "MEAN_MOTION_DDOT": 0.0,
    "TLE_LINE1": "1 59868U 24098L   25315.02783655  .00001779  00000+0  74144-4 0  9998",
    "TLE_LINE2": "2 59868  42.9992 187.7796 0000320 308.9345  51.1478 15.27583774 84158",
    "COMMENT": "Grouped by shell and plane from TLE"
  },
  {
    "OBJECT_NAME": "STARLINK-32032",
    "OBJECT_ID": "24113U",
    "EPOCH": "2025-11-11T01:49:04.389600",
    "MEAN_MOTION": 15.30205232,
    "ECCENTRICITY": 0.0001172,
    "INCLINATION": 53.1585,
    "RA_OF_ASC_NODE": 189.7786,
    "ARG_OF_PERICENTER": 82.9452,
    "MEAN_ANOMALY": 277.1682,
    "EPHEMERIS_TYPE": 0,
    "CLASSIFICATION_TYPE": "U",
    "NORAD_CAT_ID": 60077,
    "ELEMENT_SET_NO": 999,
    "REV_AT_EPOCH": 7907,
    "BSTAR": 7.4627e-05,
    "MEAN_MOTION_DOT": 1.852e-05,
    "MEAN_MOTION_DDOT": 0.0,
    "TLE_LINE1": "1 60077U 24113U   25315.07574525  .00001852  00000+0  74627-4 0  9997",
    "TLE_LINE2": "2 60077  53.1585 189.7786 0001172  82.9452 277.1682 15.30205232 79075",
    "COMMENT": "Grouped by shell and plane from TLE"
  },
  {
    "OBJECT_NAME": "STARLINK-32330",
    "OBJECT_ID": "24202F",
    "EPOCH": "2025-11-11T00:36:22.986720",
    "MEAN_MOTION": 15.2759549,
    "ECCENTRICITY": 9.48e-05,
    "INCLINATION": 42.9998,
    "RA_OF_ASC_NODE": 187.7867,
    "ARG_OF_PERICENTER": 288.5142,
    "MEAN_ANOMALY": 71.5607,
    "EPHEMERIS_TYPE": 0,
    "CLASSIFICATION_TYPE": "U",
    "NORAD_CAT_ID": 61850,
    "ELEMENT_SET_NO": 999,
    "REV_AT_EPOCH": 5719,
    "BSTAR": 0.00014010000000000002,
    "MEAN_MOTION_DOT": 3.597e-05,
    "MEAN_MOTION_DDOT": 0.0,
    "TLE_LINE1": "1 61850U 24202F   25315.02526605  .00003597  00000+0  14010-3 0  9994",
    "TLE_LINE2": "2 61850  42.9998 187.7867 0000948 288.5142  71.5607 15.27595490 57193",
    "COMMENT": "Grouped by shell and plane from TLE"
  },
  {
    "OBJECT_NAME": "STARLINK-32433",
    "OBJECT_ID": "24202H",
    "EPOCH": "2025-11-11T00:41:57.153408",
    "MEAN_MOTION": 15.27534307,
    "ECCENTRICITY": 5.29e-05,
    "INCLINATION": 42.9983,
    "RA_OF_ASC_NODE": 187.8143,
    "ARG_OF_PERICENTER": 140.4748,
    "MEAN_ANOMALY": 219.6142,
    "EPHEMERIS_TYPE": 0,
    "CLASSIFICATION_TYPE": "U",
    "NORAD_CAT_ID": 61852,
    "ELEMENT_SET_NO": 999,
    "REV_AT_EPOCH": 5719,
    "BSTAR": 0.00043642999999999997,
    "MEAN_MOTION_DOT": 0.0001175,
    "MEAN_MOTION_DDOT": 0.0,
    "TLE_LINE1": "1 61852U 24202H   25315.02913372  .00011750  00000+0  43643-3 0  9991",
    "TLE_LINE2": "2 61852  42.9983 187.8143 0000529 140.4748 219.6142 15.27534307 57199",
    "COMMENT": "Grouped by shell and plane from TLE"
  },
  {
    "OBJECT_NAME": "STARLINK-32394",
    "OBJECT_ID": "24202J",
    "EPOCH": "2025-11-11T00:45:38.204352",
    "MEAN_MOTION": 15.27591608,
    "ECCENTRICITY": 5.33e-05,
    "INCLINATION": 42.9985,
    "RA_OF_ASC_NODE": 187.8365,
    "ARG_OF_PERICENTER": 38.2396,
    "MEAN_ANOMALY": 321.8493,
    "EPHEMERIS_TYPE": 0,
    "CLASSIFICATION_TYPE": "U",
    "NORAD_CAT_ID": 61853,
    "ELEMENT_SET_NO": 999,
    "REV_AT_EPOCH": 5718,
    "BSTAR": 8.807300000000001e-05,
    "MEAN_MOTION_DOT": 2.163e-05,
    "MEAN_MOTION_DDOT": 0.0,
    "TLE_LINE1": "1 61853U 24202J   25315.03169218  .00002163  00000+0  88073-4 0  9990",
    "TLE_LINE2": "2 61853  42.9985 187.8365 0000533  38.2396 321.8493 15.27591608 57187",
    "COMMENT": "Grouped by shell and plane from TLE"
  },
  {
    "OBJECT_NAME": "STARLINK-32486",
    "OBJECT_ID": "24202K",
    "EPOCH": "2025-11-11T00:51:12.320928",
    "MEAN_MOTION": 15.27572372,
    "ECCENTRICITY": 4.86e-05,
    "INCLINATION": 43.0004,
    "RA_OF_ASC_NODE": 187.8643,
    "ARG_OF_PERICENTER": 282.471,
    "MEAN_ANOMALY": 77.6087,
    "EPHEMERIS_TYPE": 0,
    "CLASSIFICATION_TYPE": "U",
    "NORAD_CAT_ID": 61854,
    "ELEMENT_SET_NO": 999,
    "REV_AT_EPOCH": 5719,
    "BSTAR": 0.00033522,
    "MEAN_MOTION_DOT": 8.972e-05,
    "MEAN_MOTION_DDOT": 0.0,
    "TLE_LINE1": "1 61854U 24202K   25315.03555927  .00008972  00000+0  33522-3 0  9999",
    "TLE_LINE2": "2 61854  43.0004 187.8643 0000486 282.4710  77.6087 15.27572372 57194",
    "COMMENT": "Grouped by shell and plane from TLE"
  },
  {
    "OBJECT_NAME": "STARLINK-32391",
    "OBJECT_ID": "24202L",
    "EPOCH": "2025-11-11T00:56:44.617920",
    "MEAN_MOTION": 15.27581295,
    "ECCENTRICITY": 0.0001064,
    "INCLINATION": 43.0017,
    "RA_OF_ASC_NODE": 187.8941,
    "ARG_OF_PERICENTER": 279.0103,
    "MEAN_ANOMALY": 81.0628,
    "EPHEMERIS_TYPE": 0,
    "CLASSIFICATION_TYPE": "U",
    "NORAD_CAT_ID": 61855,
    "ELEMENT_SET_NO": 999,
    "REV_AT_EPOCH": 5718,
    "BSTAR": 0.00014348,
    "MEAN_MOTION_DOT": 3.688e-05,
    "MEAN_MOTION_DDOT": 0.0,
    "TLE_LINE1": "1 61855U 24202L   25315.03940530  .00003688  00000+0  14348-3 0  9992",
    "TLE_LINE2": "2 61855  43.0017 187.8941 0001064 279.0103  81.0628 15.27581295 57184",
    "COMMENT": "Grouped by shell and plane from TLE"
  },
  {
    "OBJECT_NAME": "STARLINK-32483",
    "OBJECT_ID": "24202M",
    "EPOCH": "2025-11-11T01:02:18.068352",
    "MEAN_MOTION": 15.27599281,
    "ECCENTRICITY": 8.41e-05,
    "INCLINATION": 42.9969,
    "RA_OF_ASC_NODE": 187.9262,
    "ARG_OF_PERICENTER": 56.2908,
    "MEAN_ANOMALY": 303.8024,
    "EPHEMERIS_TYPE": 0,
    "CLASSIFICATION_TYPE": "U",
    "NORAD_CAT_ID": 61856,
    "ELEMENT_SET_NO": 999,
    "REV_AT_EPOCH": 5719,
    "BSTAR": 4.9356e-05,
    "MEAN_MOTION_DOT": 1.097e-05,
    "MEAN_MOTION_DDOT": 0.0,
    "TLE_LINE1": "1 61856U 24202M   25315.04326468  .00001097  00000+0  49356-4 0  9992",
    "TLE_LINE2": "2 61856  42.9969 187.9262 0000841  56.2908 303.8024 15.27599281 57196",
    "COMMENT": "Grouped by shell and plane from TLE"
  },
  {
    "OBJECT_NAME": "STARLINK-32451",
    "OBJECT_ID": "24202N",
    "EPOCH": "2025-11-11T01:13:23.299104",
    "MEAN_MOTION": 15.27591864,
    "ECCENTRICITY": 0.0001481,
    "INCLINATION": 43.0034,
    "RA_OF_ASC_NODE": 187.9797,
    "ARG_OF_PERICENTER": 272.2242,
    "MEAN_ANOMALY": 87.844,
    "EPHEMERIS_TYPE": 0,
    "CLASSIFICATION_TYPE": "U",
    "NORAD_CAT_ID": 61857,
    "ELEMENT_SET_NO": 999,
    "REV_AT_EPOCH": 5719,
    "BSTAR": 0.00014982,
    "MEAN_MOTION_DOT": 3.864e-05,
    "MEAN_MOTION_DDOT": 0.0,
    "TLE_LINE1": "1 61857U 24202N   25315.05096411  .00003864  00000+0  14982-3 0  9996",
    "TLE_LINE2": "2 61857  43.0034 187.9797 0001481 272.2242  87.8440 15.27591864 57197",
    "COMMENT": "Grouped by shell and plane from TLE"
  }
]